{
  "type": "FeatureCollection",
  "features": [
    {
      "type": "Feature",
      "properties": {
        "norad_id": 34556,
        "name": "COSMOS 2251 DEB",
        "group": "cosmos-2251-debris",
        "lat": 12.764282579790109,
        "lon": 107.02175141613638,
        "alt_km": 640.102684299577,
        "timestamp": "2025-12-23T16:57:12.749354+00:00",
        "meta_object_name": "COSMOS 2251 DEB",
        "meta_object_id": "1993-036US",
        "meta_epoch": "2025-12-22T06:53:07.587168",
        "meta_mean_motion": 14.78074714,
        "meta_eccentricity": 0.000664,
        "meta_inclination": 74.0163,
        "meta_ra_of_asc_node": 106.0885,
        "meta_arg_of_pericenter": 165.6456,
        "meta_mean_anomaly": 217.5368,
        "meta_ephemeris_type": 0,
        "meta_classification_type": "U",
        "meta_norad_cat_id": 34556,
        "meta_element_set_no": 999,
        "meta_rev_at_epoch": 88470,
        "meta_bstar": 0.002445239,
        "meta_mean_motion_dot": 0.00017698,
        "meta_mean_motion_ddot": 0,
        "tle_line1": "1 34556U 93036US  25356.28689337  .00017698  00000+0  24452-2 0  9990",
        "tle_line2": "2 34556  74.0163 106.0885 0006640 165.6456 217.5368 14.78074714884705"
      },
      "geometry": {
        "type": "Point",
        "coordinates": [
          107.02175141613638,
          12.764282579790109
        ]
      }
    },
    {
      "type": "Feature",
      "properties": {
        "norad_id": 34560,
        "name": "COSMOS 2251 DEB",
        "group": "cosmos-2251-debris",
        "lat": 40.229137253871635,
        "lon": 134.80145263328117,
        "alt_km": 659.1732327696063,
        "timestamp": "2025-12-23T16:57:12.749364+00:00",
        "meta_object_name": "COSMOS 2251 DEB",
        "meta_object_id": "1993-036UW",
        "meta_epoch": "2025-12-22T08:17:49.177248",
        "meta_mean_motion": 14.72366661,
        "meta_eccentricity": 0.00139462,
        "meta_inclination": 74.0172,
        "meta_ra_of_asc_node": 123.4199,
        "meta_arg_of_pericenter": 205.974,
        "meta_mean_anomaly": 186.9081,
        "meta_ephemeris_type": 0,
        "meta_classification_type": "U",
        "meta_norad_cat_id": 34560,
        "meta_element_set_no": 999,
        "meta_rev_at_epoch": 88393,
        "meta_bstar": 0.0022337024,
        "meta_mean_motion_dot": 0.0001416,
        "meta_mean_motion_ddot": 0,
        "tle_line1": "1 34560U 93036UW  25356.34570807  .00014160  00000+0  22337-2 0  9994",
        "tle_line2": "2 34560  74.0172 123.4199 0013946 205.9740 186.9081 14.72366661883936"
      },
      "geometry": {
        "type": "Point",
        "coordinates": [
          134.80145263328117,
          40.229137253871635
        ]
      }
    },
    {
      "type": "Feature",
      "properties": {
        "norad_id": 34563,
        "name": "COSMOS 2251 DEB",
        "group": "cosmos-2251-debris",
        "lat": -49.00596764554311,
        "lon": 22.463262511287247,
        "alt_km": 736.4412549039998,
        "timestamp": "2025-12-23T16:57:12.749374+00:00",
        "meta_object_name": "COSMOS 2251 DEB",
        "meta_object_id": "1993-036UZ",
        "meta_epoch": "2025-12-22T13:37:02.712864",
        "meta_mean_motion": 14.46538441,
        "meta_eccentricity": 0.00139208,
        "meta_inclination": 74.0365,
        "meta_ra_of_asc_node": 185.3597,
        "meta_arg_of_pericenter": 278.8419,
        "meta_mean_anomaly": 143.9121,
        "meta_ephemeris_type": 0,
        "meta_classification_type": "U",
        "meta_norad_cat_id": 34563,
        "meta_element_set_no": 999,
        "meta_rev_at_epoch": 88339,
        "meta_bstar": 0.00036718775,
        "meta_mean_motion_dot": 1.297e-05,
        "meta_mean_motion_ddot": 0,
        "tle_line1": "1 34563U 93036UZ  25356.56739251  .00001297  00000+0  36719-3 0  9998",
        "tle_line2": "2 34563  74.0365 185.3597 0013920 278.8419 143.9121 14.46538441883392"
      },
      "geometry": {
        "type": "Point",
        "coordinates": [
          22.463262511287247,
          -49.00596764554311
        ]
      }
    },
    {
      "type": "Feature",
      "properties": {
        "norad_id": 34564,
        "name": "COSMOS 2251 DEB",
        "group": "cosmos-2251-debris",
        "lat": 37.33846216524132,
        "lon": 25.105178166933612,
        "alt_km": 766.9323502974557,
        "timestamp": "2025-12-23T16:57:12.749384+00:00",
        "meta_object_name": "COSMOS 2251 DEB",
        "meta_object_id": "1993-036VA",
        "meta_epoch": "2025-12-23T02:03:09.423072",
        "meta_mean_motion": 14.40706763,
        "meta_eccentricity": 0.00193776,
        "meta_inclination": 74.0314,
        "meta_ra_of_asc_node": 218.8707,
        "meta_arg_of_pericenter": 321.3363,
        "meta_mean_anomaly": 200.5864,
        "meta_ephemeris_type": 0,
        "meta_classification_type": "U",
        "meta_norad_cat_id": 34564,
        "meta_element_set_no": 999,
        "meta_rev_at_epoch": 88155,
        "meta_bstar": 0.00022114786,
        "meta_mean_motion_dot": 6.81e-06,
        "meta_mean_motion_ddot": 0,
        "tle_line1": "1 34564U 93036VA  25357.08552573  .00000681  00000+0  22115-3 0  9998",
        "tle_line2": "2 34564  74.0314 218.8707 0019377 321.3363 200.5864 14.40706763881554"
      },
      "geometry": {
        "type": "Point",
        "coordinates": [
          25.105178166933612,
          37.33846216524132
        ]
      }
    },
    {
      "type": "Feature",
      "properties": {
        "norad_id": 34567,
        "name": "COSMOS 2251 DEB",
        "group": "cosmos-2251-debris",
        "lat": -64.30009626236509,
        "lon": -6.473735239742469,
        "alt_km": 777.9736419738665,
        "timestamp": "2025-12-23T16:57:12.749394+00:00",
        "meta_object_name": "COSMOS 2251 DEB",
        "meta_object_id": "1993-036VD",
        "meta_epoch": "2025-12-22T16:16:54.466752",
        "meta_mean_motion": 14.2402716,
        "meta_eccentricity": 0.00741599,
        "meta_inclination": 74.0409,
        "meta_ra_of_asc_node": 138.8924,
        "meta_arg_of_pericenter": 211.0276,
        "meta_mean_anomaly": 170.0812,
        "meta_ephemeris_type": 0,
        "meta_classification_type": "U",
        "meta_norad_cat_id": 34567,
        "meta_element_set_no": 999,
        "meta_rev_at_epoch": 87266,
        "meta_bstar": 0.00021099929,
        "meta_mean_motion_dot": 4.73e-06,
        "meta_mean_motion_ddot": 0,
        "tle_line1": "1 34567U 93036VD  25356.67840818  .00000473  00000+0  21100-3 0  9999",
        "tle_line2": "2 34567  74.0409 138.8924 0074159 211.0276 170.0812 14.24027160872666"
      },
      "geometry": {
        "type": "Point",
        "coordinates": [
          -6.473735239742469,
          -64.30009626236509
        ]
      }
    },
    {
      "type": "Feature",
      "properties": {
        "norad_id": 34569,
        "name": "COSMOS 2251 DEB",
        "group": "cosmos-2251-debris",
        "lat": 73.6014998218875,
        "lon": -104.35673662923266,
        "alt_km": 784.8300245891978,
        "timestamp": "2025-12-23T16:57:12.749405+00:00",
        "meta_object_name": "COSMOS 2251 DEB",
        "meta_object_id": "1993-036VF",
        "meta_epoch": "2025-12-22T20:37:39.103968",
        "meta_mean_motion": 14.24776526,
        "meta_eccentricity": 0.01577718,
        "meta_inclination": 73.9894,
        "meta_ra_of_asc_node": 179.8374,
        "meta_arg_of_pericenter": 5.9127,
        "meta_mean_anomaly": 56.4739,
        "meta_ephemeris_type": 0,
        "meta_classification_type": "U",
        "meta_norad_cat_id": 34569,
        "meta_element_set_no": 999,
        "meta_rev_at_epoch": 87112,
        "meta_bstar": 0.00038517693,
        "meta_mean_motion_dot": 9.95e-06,
        "meta_mean_motion_ddot": 0,
        "tle_line1": "1 34569U 93036VF  25356.85948037  .00000995  00000+0  38518-3 0  9993",
        "tle_line2": "2 34569  73.9894 179.8374 0157771   5.9127  56.4739 14.24776526871127"
      },
      "geometry": {
        "type": "Point",
        "coordinates": [
          -104.35673662923266,
          73.6014998218875
        ]
      }
    },
    {
      "type": "Feature",
      "properties": {
        "norad_id": 34570,
        "name": "COSMOS 2251 DEB",
        "group": "cosmos-2251-debris",
        "lat": 62.292138509706724,
        "lon": -14.012023590891433,
        "alt_km": 771.8721696362436,
        "timestamp": "2025-12-23T16:57:12.749415+00:00",
        "meta_object_name": "COSMOS 2251 DEB",
        "meta_object_id": "1993-036VG",
        "meta_epoch": "2025-12-23T06:40:44.080608",
        "meta_mean_motion": 13.99837278,
        "meta_eccentricity": 0.01902095,
        "meta_inclination": 73.9564,
        "meta_ra_of_asc_node": 199.9553,
        "meta_arg_of_pericenter": 80.1017,
        "meta_mean_anomaly": 34.9685,
        "meta_ephemeris_type": 0,
        "meta_classification_type": "U",
        "meta_norad_cat_id": 34570,
        "meta_element_set_no": 999,
        "meta_rev_at_epoch": 85748,
        "meta_bstar": 0.00047470822,
        "meta_mean_motion_dot": 7.91e-06,
        "meta_mean_motion_ddot": 0,
        "tle_line1": "1 34570U 93036VG  25357.27828797  .00000791  00000+0  47471-3 0  9994",
        "tle_line2": "2 34570  73.9564 199.9553 0190209  80.1017  34.9685 13.99837278857488"
      },
      "geometry": {
        "type": "Point",
        "coordinates": [
          -14.012023590891433,
          62.292138509706724
        ]
      }
    }
  ]
}